SBIRS GEO-6 (USA 336)   
1 53355U 22092A   23185.52869578  .00000125  00000+0  00000+0 0  9991
2 53355   5.9066 311.1032 0008195 152.8225 223.6870  1.00271612  3414
EUTELSAT KONNECT VHTS   
1 53765U 22110A   23195.38373830  .00000017  00000+0  00000+0 0  9993
2 53765   0.0494  92.2356 0002698  24.7494 315.8321  1.00272135  3071
CHINASAT 1E (ZX 1E)     
1 53813U 22112A   23194.91179883 -.00000148  00000+0  00000+0 0  9995
2 53813   0.7459 277.4683 0002503 194.1826 229.5322  1.00272453  3120
SES-20                  
1 53960U 22123A   23195.14397068 -.00000100  00000+0  00000+0 0  9991
2 53960   0.0341 154.8674 0001862 295.4119 150.1963  1.00269716  2814
SES-21                  
1 53961U 22123B   23193.61899213  .00000069  00000+0  00000+0 0  9994
2 53961   0.0284  31.2644 0001110  84.3899 266.5136  1.00271738  2813
GALAXY 33 (G-33)        
1 54026U 22128A   23195.07001948  .00000079  00000+0  00000+0 0  9995
2 54026   0.0147  34.1230 0001756  75.7209  74.0332  1.00270170  3025
GALAXY 34 (G-34)        
1 54027U 22128B   23194.61186650  .00000059  00000+0  00000+0 0  9997
2 54027   0.0218  37.1229 0001583  73.7780 271.6614  1.00270702  3058
ANGOSAT 2               
1 54033U 22131A   23194.74268462  .00000136  00000+0  00000+0 0  9990
2 54033   0.0297 150.2420 0000618 121.0946 310.3626  1.00272972  2752
EUTELSAT HOTBIRD 13F    
1 54048U 22134A   23194.59488770  .00000008  00000+0  00000+0 0  9996
2 54048   0.0716 292.1655 0001540 325.0008 249.5903  1.00271876  2720
EUTELSAT HOTBIRD 13G    
1 54225U 22146A   23194.74067984  .00000087  00000+0  00000+0 0  9990
2 54225   0.0618 248.4460 0003180 313.4428   9.0805  1.00271691  2494
CHINASAT 19 (ZX 19)     
1 54230U 22148A   23194.69893562 -.00000080  00000+0  00000+0 0  9995
2 54230   0.0216  54.6825 0005233 183.2823 108.2373  1.00271683  2649
GALAXY 31 (G-31)        
1 54243U 22153A   23194.61746559  .00000014  00000+0  00000+0 0  9996
2 54243   0.0228  40.1949 0002080 222.0606 130.2573  1.00270319  2430
GALAXY 32 (G-32)        
1 54244U 22153B   23193.93158990 -.00000174  00000+0  00000+0 0  9995
2 54244   0.0093  38.9926 0001534  13.2269 122.6903  1.00271501  2435
EUTELSAT 10B            
1 54259U 22157A   23195.17896824  .00000070  00000+0  00000+0 0  9992
2 54259   0.0516  97.4439 0001859 120.6135 148.1501  1.00278715  2335
GALAXY 35 (G-35)        
1 54741U 22170A   23194.57623441 -.00000162  00000+0  00000+0 0  9992
2 54741   0.0190  40.8115 0000570 173.0551 191.6556  1.00270978  2184
GALAXY 36 (G-36)        
1 54742U 22170B   23195.07873976 -.00000185  00000+0  00000+0 0  9994
2 54742   0.0186  51.8635 0003259  52.5313 126.6207  1.00271876  2193
METEOSAT-12 (MTG-I1)    
1 54743U 22170C   23194.59410321 -.00000028  00000+0  00000+0 0  9998
2 54743   0.6637 310.8498 0002451 140.5434  50.3430  1.00273675  2247
SHIJIAN-23 (SJ-23)      
1 55131U 23002A   23195.76897000 -.00000363  00000+0  00000+0 0  9990
2 55131   0.9576  92.4011 0000202 257.9556 334.3774  1.00445287  1973
USA 340                 
1 55138U 22144E   23186.76041667  .00000040  00000+0  00000+0 0  9994
2 55138   3.1963  66.2703 0009403 140.7553 232.6148  0.99838807   997
USA 342                 
1 55263U 23008A   23194.52767801  .00000019  00000+0  00000+0 0  9997
2 55263   0.0302 121.5587 0000970 102.0670 135.5538  1.00272761  1792
LDPE-3A                 
1 55264U 23008B   23193.54611689 -.00000146  00000+0  00000+0 0  9993
2 55264   0.3680  89.0070 0001338  84.3976 118.4245  0.99882140  1060
ELEKTRO-L 4             
1 55506U 23016A   23193.73308160 -.00000059  00000+0  00000+0 0  9992
2 55506   0.1814 302.9016 0000805  32.5785  24.5032  1.00272233  1581
CHINASAT 26 (ZX 26)     
1 55686U 23023A   23194.76201721 -.00000354  00000+0  00000+0 0  9996
2 55686   0.0691  86.2649 0003766 355.6963 248.7971  1.00267503  1511
LUCH-5X (OLYMP-K 2)     
1 55841U 23031A   23195.59994013  .00000061  00000+0  00000+0 0  9997
2 55841   0.0061  75.6051 0001327  61.3292  20.1381  1.00270557  1230
GAOFEN 13-02            
1 55912U 23036A   23194.69562336 -.00000226  00000+0  00000+0 0  9994
2 55912   2.7863 301.2561 0002417 280.9897 106.1759  1.00273694  1366
SES-18                  
1 55970U 23038A   23194.57422962 -.00000101  00000+0  00000+0 0  9999
2 55970   0.0342 243.3092 0000798 297.5933 213.8916  1.00271928  1395
SES-19                  
1 55971U 23038B   23194.71122587  .00000088  00000+0  00000+0 0  9999
2 55971   0.0168  27.2101 0001471  87.3618 297.8713  1.00272174  1364
INTELSAT 40E (IS-40E)   
1 56174U 23052A   23193.78817845 -.00000172  00000+0  00000+0 0  9990
2 56174   0.0163  83.5550 0001797  23.1799  16.3919  1.00257836  1109
VIASAT-3                
1 56370U 23060A   23194.57710608 -.00000185  00000+0  00000+0 0  9998
2 56370   0.0996 110.7618 0000637 256.4486  42.8399  1.00270179   723
ARCTURUS                
1 56371U 23060B   23194.70564731  .00000128  00000+0  00000+0 0  9994
2 56371   0.0356  31.4994 0001074 133.8335 217.1212  1.00267319   731
BEIDOU-3 G4             
1 56564U 23066A   23194.69832549 -.00000107  00000+0  00000+0 0  9995
2 56564   2.9724 289.0762 0007044 196.7303 216.8954  1.00271164   681
IRNSS-1J (NVS-01)       
1 56759U 23076A   23194.76375387 -.00000328  00000+0  00000+0 0  9997
2 56759   4.8712 273.0591 0004073 337.3365  85.5822  1.00272291   483
